start=new Date('2022-01-26T00:00:00.000Z').valueOf();
sats=[{"EPOCH":"2022-01-25T21:36:20.312640","OBJECT_TYPE":"PAYLOAD","MEAN_MOTION_DOT":"0.00000288","REV_AT_EPOCH":"5362","MEAN_ELEMENT_THEORY":"SGP4","TLE_LINE1":"1 47624U 21012E   22025.90023510  .00000288  00000-0  38206-4 0  9991","REF_FRAME":"TEME","LAUNCH_DATE":"2021-02-16","CENTER_NAME":"EARTH","NORAD_CAT_ID":"47624","APOAPSIS":"548.341","ECCENTRICITY":"0.00016590","BSTAR":"0.00003820600000","INCLINATION":"53.0557","EPHEMERIS_TYPE":"0","CLASSIFICATION_TYPE":"U","SEMIMAJOR_AXIS":"6925.327","OBJECT_NAME":"STARLINK-1669","COUNTRY_CODE":"US","RA_OF_ASC_NODE":"322.3924","DECAY_DATE":null,"FILE":"3283711","RCS_SIZE":"LARGE","MEAN_MOTION":"15.06407050","ELEMENT_SET_NO":"999","PERIAPSIS":"546.043","GP_ID":"194643124","TLE_LINE2":"2 47624  53.0557 322.3924 0001659  70.4459 289.6709 15.06407050 53620","PERIOD":"95.592","ARG_OF_PERICENTER":"70.4459","TIME_SYSTEM":"UTC","SITE":"AFETR","MEAN_ANOMALY":"289.6709","MEAN_MOTION_DDOT":"0.0000000000000","OBJECT_ID":"2021-012E"},{"GP_ID":"194619764","ELEMENT_SET_NO":"999","PERIAPSIS":"546.122","MEAN_MOTION":"15.06387524","RCS_SIZE":"LARGE","FILE":"3283634","OBJECT_ID":"2021-012F","MEAN_MOTION_DDOT":"0.0000000000000","MEAN_ANOMALY":"293.5754","SITE":"AFETR","TIME_SYSTEM":"UTC","ARG_OF_PERICENTER":"66.5406","PERIOD":"95.593","TLE_LINE2":"2 47625  53.0556 343.8743 0001632  66.5406 293.5754 15.06387524 52767","CENTER_NAME":"EARTH","LAUNCH_DATE":"2021-02-16","TLE_LINE1":"1 47625U 21012F   22025.57033681 -.00003210  00000-0 -19674-3 0  9992","MEAN_ELEMENT_THEORY":"SGP4","REF_FRAME":"TEME","OBJECT_TYPE":"PAYLOAD","MEAN_MOTION_DOT":"-0.00003210","EPOCH":"2022-01-25T13:41:17.100384","REV_AT_EPOCH":"5276","DECAY_DATE":null,"RA_OF_ASC_NODE":"343.8743","COUNTRY_CODE":"US","OBJECT_NAME":"STARLINK-1704","EPHEMERIS_TYPE":"0","BSTAR":"-0.00019674000000","INCLINATION":"53.0556","CLASSIFICATION_TYPE":"U","SEMIMAJOR_AXIS":"6925.387","NORAD_CAT_ID":"47625","APOAPSIS":"548.382","ECCENTRICITY":"0.00016320"},{"CENTER_NAME":"EARTH","LAUNCH_DATE":"2021-02-16","TLE_LINE1":"1 47626U 21012G   22025.15751390 -.00000802  00000-0 -34952-4 0  9992","MEAN_ELEMENT_THEORY":"SGP4","REF_FRAME":"TEME","EPOCH":"2022-01-25T03:46:49.200960","OBJECT_TYPE":"PAYLOAD","MEAN_MOTION_DOT":"-0.00000802","REV_AT_EPOCH":"5321","DECAY_DATE":null,"RA_OF_ASC_NODE":"345.7205","COUNTRY_CODE":"US","OBJECT_NAME":"STARLINK-1761","INCLINATION":"53.0582","BSTAR":"-0.00003495200000","EPHEMERIS_TYPE":"0","CLASSIFICATION_TYPE":"U","SEMIMAJOR_AXIS":"6925.357","NORAD_CAT_ID":"47626","ECCENTRICITY":"0.00017730","APOAPSIS":"548.450","GP_ID":"194610730","ELEMENT_SET_NO":"999","PERIAPSIS":"545.994","MEAN_MOTION":"15.06397308","RCS_SIZE":"LARGE","FILE":"3283407","OBJECT_ID":"2021-012G","MEAN_MOTION_DDOT":"0.0000000000000","MEAN_ANOMALY":"295.8152","SITE":"AFETR","ARG_OF_PERICENTER":"64.3020","TIME_SYSTEM":"UTC","PERIOD":"95.592","TLE_LINE2":"2 47626  53.0582 345.7205 0001773  64.3020 295.8152 15.06397308 53214"},{"OBJECT_TYPE":"PAYLOAD","MEAN_MOTION_DOT":"-0.00008598","EPOCH":"2022-01-25T22:00:00.999936","REV_AT_EPOCH":"359","MEAN_ELEMENT_THEORY":"SGP4","TLE_LINE1":"1 47627U 21012H   22025.91667824 -.00008598  00000-0 -55894-3 0  9992","REF_FRAME":"TEME","LAUNCH_DATE":"2021-02-16","CENTER_NAME":"EARTH","NORAD_CAT_ID":"47627","APOAPSIS":"548.539","ECCENTRICITY":"0.00019310","EPHEMERIS_TYPE":"0","BSTAR":"-0.00055894000000","CLASSIFICATION_TYPE":"U","INCLINATION":"53.0527","SEMIMAJOR_AXIS":"6925.336","OBJECT_NAME":"STARLINK-1972","COUNTRY_CODE":"US","RA_OF_ASC_NODE":"247.3122","DECAY_DATE":null,"FILE":"3283711","RCS_SIZE":"MEDIUM","MEAN_MOTION":"15.06403988","ELEMENT_SET_NO":"999","PERIAPSIS":"545.864","GP_ID":"194644376","TLE_LINE2":"2 47627  53.0527 247.3122 0001931  65.8721  36.0005 15.06403988  3599","PERIOD":"95.592","ARG_OF_PERICENTER":"65.8721","TIME_SYSTEM":"UTC","SITE":"AFETR","MEAN_ANOMALY":"36.0005","MEAN_MOTION_DDOT":"0.0000000000000","OBJECT_ID":"2021-012H"},{"MEAN_ANOMALY":"295.3394","MEAN_MOTION_DDOT":"0.0000000000000","OBJECT_ID":"2021-012J","TLE_LINE2":"2 47628  53.0556 345.2737 0001745  64.7776 295.3394 15.06396956 53236","PERIOD":"95.592","TIME_SYSTEM":"UTC","ARG_OF_PERICENTER":"64.7776","SITE":"AFETR","ELEMENT_SET_NO":"999","PERIAPSIS":"546.014","GP_ID":"194611703","FILE":"3283407","RCS_SIZE":"LARGE","MEAN_MOTION":"15.06396956","COUNTRY_CODE":"US","RA_OF_ASC_NODE":"345.2737","DECAY_DATE":null,"NORAD_CAT_ID":"47628","APOAPSIS":"548.431","ECCENTRICITY":"0.00017450","EPHEMERIS_TYPE":"0","BSTAR":"-0.00003787200000","CLASSIFICATION_TYPE":"U","INCLINATION":"53.0556","SEMIMAJOR_AXIS":"6925.358","OBJECT_NAME":"STARLINK-1973","CENTER_NAME":"EARTH","REV_AT_EPOCH":"5323","OBJECT_TYPE":"PAYLOAD","MEAN_MOTION_DOT":"-0.00000846","EPOCH":"2022-01-25T06:15:26.423136","MEAN_ELEMENT_THEORY":"SGP4","TLE_LINE1":"1 47628U 21012J   22025.26072249 -.00000846  00000-0 -37872-4 0  9997","REF_FRAME":"TEME","LAUNCH_DATE":"2021-02-16"},{"MEAN_MOTION_DDOT":"0.0000000000000","MEAN_ANOMALY":"346.9807","OBJECT_ID":"2021-012K","PERIOD":"95.593","TLE_LINE2":"2 47629  53.0538 222.3083 0002867  72.3745 346.9807 15.06386437  3592","SITE":"AFETR","ARG_OF_PERICENTER":"72.3745","TIME_SYSTEM":"UTC","GP_ID":"194642875","ELEMENT_SET_NO":"999","PERIAPSIS":"545.270","FILE":"3283711","MEAN_MOTION":"15.06386437","RCS_SIZE":"LARGE","COUNTRY_CODE":"US","DECAY_DATE":null,"RA_OF_ASC_NODE":"222.3083","NORAD_CAT_ID":"47629","APOAPSIS":"549.241","ECCENTRICITY":"0.00028670","OBJECT_NAME":"STARLINK-1974","BSTAR":"0.00129120000000","INCLINATION":"53.0538","CLASSIFICATION_TYPE":"U","EPHEMERIS_TYPE":"0","SEMIMAJOR_AXIS":"6925.390","CENTER_NAME":"EARTH","MEAN_ELEMENT_THEORY":"SGP4","TLE_LINE1":"1 47629U 21012K   22025.91667824  .00018997  00000-0  12912-2 0  9999","REF_FRAME":"TEME","MEAN_MOTION_DOT":"0.00018997","OBJECT_TYPE":"PAYLOAD","REV_AT_EPOCH":"359","EPOCH":"2022-01-25T22:00:00.999936","LAUNCH_DATE":"2021-02-16"},{"SITE":"AFETR","ARG_OF_PERICENTER":"62.1353","TIME_SYSTEM":"UTC","PERIOD":"95.593","TLE_LINE2":"2 47630  53.0578 322.8881 0001919  62.1353 297.9830 15.06394193 53571","OBJECT_ID":"2021-012L","MEAN_MOTION_DDOT":"0.0000000000000","MEAN_ANOMALY":"297.9830","MEAN_MOTION":"15.06394193","RCS_SIZE":"LARGE","FILE":"3283711","GP_ID":"194644126","ELEMENT_SET_NO":"999","PERIAPSIS":"545.902","OBJECT_NAME":"STARLINK-1983","BSTAR":"-0.00004078600000","EPHEMERIS_TYPE":"0","INCLINATION":"53.0578","CLASSIFICATION_TYPE":"U","SEMIMAJOR_AXIS":"6925.366","NORAD_CAT_ID":"47630","APOAPSIS":"548.560","ECCENTRICITY":"0.00019190","DECAY_DATE":null,"RA_OF_ASC_NODE":"322.8881","COUNTRY_CODE":"US","LAUNCH_DATE":"2021-02-16","MEAN_ELEMENT_THEORY":"SGP4","TLE_LINE1":"1 47630U 21012L   22025.78870841 -.00000889  00000-0 -40786-4 0  9996","REF_FRAME":"TEME","OBJECT_TYPE":"PAYLOAD","REV_AT_EPOCH":"5357","MEAN_MOTION_DOT":"-0.00000889","EPOCH":"2022-01-25T18:55:44.406624","CENTER_NAME":"EARTH"},{"MEAN_MOTION_DDOT":"0.0000000000000","MEAN_ANOMALY":"156.7261","OBJECT_ID":"2021-012M","PERIOD":"91.163","TLE_LINE2":"2 47631  53.0348 194.5636 0000745 345.6161 156.7261 15.79582486  3705","SITE":"AFETR","ARG_OF_PERICENTER":"345.6161","TIME_SYSTEM":"UTC","GP_ID":"194643877","PERIAPSIS":"331.125","ELEMENT_SET_NO":"999","FILE":"3283711","MEAN_MOTION":"15.79582486","RCS_SIZE":"LARGE","COUNTRY_CODE":"US","DECAY_DATE":null,"RA_OF_ASC_NODE":"194.5636","APOAPSIS":"332.125","ECCENTRICITY":"0.00007450","NORAD_CAT_ID":"47631","OBJECT_NAME":"STARLINK-1985","SEMIMAJOR_AXIS":"6709.760","EPHEMERIS_TYPE":"0","BSTAR":"0.00083360000000","INCLINATION":"53.0348","CLASSIFICATION_TYPE":"U","CENTER_NAME":"EARTH","REF_FRAME":"TEME","TLE_LINE1":"1 47631U 21012M   22025.91667824  .00157286  00000-0  83360-3 0  9993","MEAN_ELEMENT_THEORY":"SGP4","MEAN_MOTION_DOT":"0.00157286","OBJECT_TYPE":"PAYLOAD","EPOCH":"2022-01-25T22:00:00.999936","REV_AT_EPOCH":"370","LAUNCH_DATE":"2021-02-16"},{"MEAN_MOTION_DOT":"-0.00016980","OBJECT_TYPE":"PAYLOAD","REV_AT_EPOCH":"358","EPOCH":"2022-01-25T22:00:00.999936","TLE_LINE1":"1 47632U 21012N   22025.91667824 -.00016980  00000-0 -11242-2 0  9990","MEAN_ELEMENT_THEORY":"SGP4","REF_FRAME":"TEME","LAUNCH_DATE":"2021-02-16","CENTER_NAME":"EARTH","NORAD_CAT_ID":"47632","APOAPSIS":"548.385","ECCENTRICITY":"0.00016200","BSTAR":"-0.00112420000000","EPHEMERIS_TYPE":"0","INCLINATION":"53.0552","CLASSIFICATION_TYPE":"U","SEMIMAJOR_AXIS":"6925.398","OBJECT_NAME":"STARLINK-1992","COUNTRY_CODE":"US","RA_OF_ASC_NODE":"247.3195","DECAY_DATE":null,"FILE":"3283711","RCS_SIZE":"LARGE","MEAN_MOTION":"15.06383714","ELEMENT_SET_NO":"999","PERIAPSIS":"546.142","GP_ID":"194643125","TLE_LINE2":"2 47632  53.0552 247.3195 0001620  70.2869 256.7317 15.06383714  3581","PERIOD":"95.593","TIME_SYSTEM":"UTC","ARG_OF_PERICENTER":"70.2869","SITE":"AFETR","MEAN_ANOMALY":"256.7317","MEAN_MOTION_DDOT":"0.0000000000000","OBJECT_ID":"2021-012N"},{"FILE":"3283711","MEAN_MOTION":"15.06405978","RCS_SIZE":"LARGE","GP_ID":"194643375","PERIAPSIS":"545.996","ELEMENT_SET_NO":"999","PERIOD":"95.592","TLE_LINE2":"2 47633  53.0555 343.1094 0001732  61.6426 298.4737 15.06405978 53328","SITE":"AFETR","ARG_OF_PERICENTER":"61.6426","TIME_SYSTEM":"UTC","MEAN_MOTION_DDOT":"0.0000000000000","MEAN_ANOMALY":"298.4737","OBJECT_ID":"2021-012P","REF_FRAME":"TEME","MEAN_ELEMENT_THEORY":"SGP4","TLE_LINE1":"1 47633U 21012P   22025.73988444 -.00001097  00000-0 -54717-4 0  9994","EPOCH":"2022-01-25T17:45:26.015616","OBJECT_TYPE":"PAYLOAD","MEAN_MOTION_DOT":"-0.00001097","REV_AT_EPOCH":"5332","LAUNCH_DATE":"2021-02-16","CENTER_NAME":"EARTH","APOAPSIS":"548.395","ECCENTRICITY":"0.00017320","NORAD_CAT_ID":"47633","OBJECT_NAME":"STARLINK-2009","SEMIMAJOR_AXIS":"6925.330","BSTAR":"-0.00005471700000","EPHEMERIS_TYPE":"0","INCLINATION":"53.0555","CLASSIFICATION_TYPE":"U","COUNTRY_CODE":"US","DECAY_DATE":null,"RA_OF_ASC_NODE":"343.1094"}];
